{"type": "FeatureCollection", "features": [ {"type": "Feature", "properties": {"norad_id": 67121, "name": "STARLINK-36124", "group": "last-30-days", "lat": -39.07858631596546, "lon": -162.07220682639743, "alt_km": 293.60100260055697, "timestamp": "2025-12-22T05:49:02.189885+00:00", "meta": {"OBJECT_NAME": "STARLINK-36124", "OBJECT_ID": "2025-299V", "EPOCH": "2025-12-21T20:00:01.999008", "MEAN_MOTION": 15.9479165, "ECCENTRICITY": 0.0002159, "INCLINATION": 42.9992, "RA_OF_ASC_NODE": 261.1141, "ARG_OF_PERICENTER": 269.3594, "MEAN_ANOMALY": 192.5906, "EPHEMERIS_TYPE": 0, "CLASSIFICATION_TYPE": "U", "NORAD_CAT_ID": 67121, "ELEMENT_SET_NO": 999, "REV_AT_EPOCH": 227, "BSTAR": -0.0034474, "MEAN_MOTION_DOT": -0.0137182, "MEAN_MOTION_DDOT": 0.00055366}, "tle": {"line1": "1 67121U 25299V   25355.83335647 -.01371820  55366-3 -34474-2 0  9999", "line2": "2 67121  42.9992 261.1141 0002159 269.3594 192.5906 15.94791650  2275"}}, "geometry": {"type": "Point", "coordinates": [-162.07220682639743, -39.07858631596546]}}, {"type": "Feature", "properties": {"norad_id": 67122, "name": "STARLINK-36188", "group": "last-30-days", "lat": -38.60189114462894, "lon": -160.3986669894351, "alt_km": 293.7170590772812, "timestamp": "2025-12-22T05:49:02.189895+00:00", "meta": {"OBJECT_NAME": "STARLINK-36188", "OBJECT_ID": "2025-299W", "EPOCH": "2025-12-21T20:00:01.999008", "MEAN_MOTION": 15.94872267, "ECCENTRICITY": 0.0001863, "INCLINATION": 42.9994, "RA_OF_ASC_NODE": 261.111, "ARG_OF_PERICENTER": 262.9994, "MEAN_ANOMALY": 200.2437, "EPHEMERIS_TYPE": 0, "CLASSIFICATION_TYPE": "U", "NORAD_CAT_ID": 67122, "ELEMENT_SET_NO": 999, "REV_AT_EPOCH": 227, "BSTAR": -0.0035272, "MEAN_MOTION_DOT": -0.01409141, "MEAN_MOTION_DDOT": 0.00058205}, "tle": {"line1": "1 67122U 25299W   25355.83335647 -.01409141  58205-3 -35272-2 0  9990", "line2": "2 67122  42.9994 261.1110 0001863 262.9994 200.2437 15.94872267  2278"}}, "geometry": {"type": "Point", "coordinates": [-160.3986669894351, -38.60189114462894]}}, {"type": "Feature", "properties": {"norad_id": 67123, "name": "STARLINK-36151", "group": "last-30-days", "lat": -39.63113748386363, "lon": -164.1575529838926, "alt_km": 293.69042247362995, "timestamp": "2025-12-22T05:49:02.189905+00:00", "meta": {"OBJECT_NAME": "STARLINK-36151", "OBJECT_ID": "2025-299X", "EPOCH": "2025-12-21T20:00:01.999008", "MEAN_MOTION": 15.94654077, "ECCENTRICITY": 0.0001953, "INCLINATION": 42.9994, "RA_OF_ASC_NODE": 261.1185, "ARG_OF_PERICENTER": 272.5837, "MEAN_ANOMALY": 187.7461, "EPHEMERIS_TYPE": 0, "CLASSIFICATION_TYPE": "U", "NORAD_CAT_ID": 67123, "ELEMENT_SET_NO": 999, "REV_AT_EPOCH": 227, "BSTAR": -0.0029683, "MEAN_MOTION_DOT": -0.01174459, "MEAN_MOTION_DDOT": 0.00041611}, "tle": {"line1": "1 67123U 25299X   25355.83335647 -.01174459  41611-3 -29683-2 0  9994", "line2": "2 67123  42.9994 261.1185 0001953 272.5837 187.7461 15.94654077  2277"}}, "geometry": {"type": "Point", "coordinates": [-164.1575529838926, -39.63113748386363]}}, {"type": "Feature", "properties": {"norad_id": 67124, "name": "STARLINK-36195", "group": "last-30-days", "lat": -38.031518033211135, "lon": -158.5250212257472, "alt_km": 293.736310792483, "timestamp": "2025-12-22T05:49:02.189917+00:00", "meta": {"OBJECT_NAME": "STARLINK-36195", "OBJECT_ID": "2025-299Y", "EPOCH": "2025-12-21T20:00:01.999008", "MEAN_MOTION": 15.94983937, "ECCENTRICITY": 0.0001773, "INCLINATION": 42.9994, "RA_OF_ASC_NODE": 261.1074, "ARG_OF_PERICENTER": 261.5968, "MEAN_ANOMALY": 203.1354, "EPHEMERIS_TYPE": 0, "CLASSIFICATION_TYPE": "U", "NORAD_CAT_ID": 67124, "ELEMENT_SET_NO": 999, "REV_AT_EPOCH": 227, "BSTAR": -0.0038194, "MEAN_MOTION_DOT": -0.01533484, "MEAN_MOTION_DDOT": 0.00068056}, "tle": {"line1": "1 67124U 25299Y   25355.83335647 -.01533484  68056-3 -38194-2 0  9991", "line2": "2 67124  42.9994 261.1074 0001773 261.5968 203.1354 15.94983937  2272"}}, "geometry": {"type": "Point", "coordinates": [-158.5250212257472, -38.031518033211135]}}, {"type": "Feature", "properties": {"norad_id": 67125, "name": "STARLINK-36219", "group": "last-30-days", "lat": -37.4738378285981, "lon": -156.8075968270668, "alt_km": 293.3710764295565, "timestamp": "2025-12-22T05:49:02.189928+00:00", "meta": {"OBJECT_NAME": "STARLINK-36219", "OBJECT_ID": "2025-299Z", "EPOCH": "2025-12-21T20:00:01.999008", "MEAN_MOTION": 15.95047305, "ECCENTRICITY": 0.0001849, "INCLINATION": 42.9993, "RA_OF_ASC_NODE": 261.1035, "ARG_OF_PERICENTER": 270.0288, "MEAN_ANOMALY": 196.0813, "EPHEMERIS_TYPE": 0, "CLASSIFICATION_TYPE": "U", "NORAD_CAT_ID": 67125, "ELEMENT_SET_NO": 999, "REV_AT_EPOCH": 227, "BSTAR": -0.0037882, "MEAN_MOTION_DOT": -0.01526261, "MEAN_MOTION_DDOT": 0.00067511}, "tle": {"line1": "1 67125U 25299Z   25355.83335647 -.01526261  67511-3 -37882-2 0  9995", "line2": "2 67125  42.9993 261.1035 0001849 270.0288 196.0813 15.95047305  2274"}}, "geometry": {"type": "Point", "coordinates": [-156.8075968270668, -37.4738378285981]}}, {"type": "Feature", "properties": {"norad_id": 67126, "name": "STARLINK-36223", "group": "last-30-days", "lat": -36.748890631739435, "lon": -154.71508793009176, "alt_km": 293.30804898342376, "timestamp": "2025-12-22T05:49:02.189938+00:00", "meta": {"OBJECT_NAME": "STARLINK-36223", "OBJECT_ID": "2025-299AA", "EPOCH": "2025-12-21T20:00:01.999008", "MEAN_MOTION": 15.9516383, "ECCENTRICITY": 0.0001712, "INCLINATION": 42.9993, "RA_OF_ASC_NODE": 261.0992, "ARG_OF_PERICENTER": 270.5786, "MEAN_ANOMALY": 197.2405, "EPHEMERIS_TYPE": 0, "CLASSIFICATION_TYPE": "U", "NORAD_CAT_ID": 67126, "ELEMENT_SET_NO": 999, "REV_AT_EPOCH": 227, "BSTAR": -0.0040024, "MEAN_MOTION_DOT": -0.01621449, "MEAN_MOTION_DDOT": 0.00075554}, "tle": {"line1": "1 67126U 25299AA  25355.83335647 -.01621449  75554-3 -40024-2 0  9998", "line2": "2 67126  42.9993 261.0992 0001712 270.5786 197.2405 15.95163830  2275"}}, "geometry": {"type": "Point", "coordinates": [-154.71508793009176, -36.748890631739435]}}, {"type": "Feature", "properties": {"norad_id": 67127, "name": "STARLINK-36164", "group": "last-30-days", "lat": -36.071295661417786, "lon": -152.8810037364794, "alt_km": 293.15407314146705, "timestamp": "2025-12-22T05:49:02.189948+00:00", "meta": {"OBJECT_NAME": "STARLINK-36164", "OBJECT_ID": "2025-299AB", "EPOCH": "2025-12-21T20:00:01.999008", "MEAN_MOTION": 15.95235014, "ECCENTRICITY": 0.0001748, "INCLINATION": 42.9994, "RA_OF_ASC_NODE": 261.0955, "ARG_OF_PERICENTER": 263.6247, "MEAN_ANOMALY": 205.7089, "EPHEMERIS_TYPE": 0, "CLASSIFICATION_TYPE": "U", "NORAD_CAT_ID": 67127, "ELEMENT_SET_NO": 999, "REV_AT_EPOCH": 227, "BSTAR": -0.0039612, "MEAN_MOTION_DOT": -0.01611078, "MEAN_MOTION_DDOT": 0.00074719}, "tle": {"line1": "1 67127U 25299AB  25355.83335647 -.01611078  74719-3 -39612-2 0  9999", "line2": "2 67127  42.9994 261.0955 0001748 263.6247 205.7089 15.95235014  2277"}}, "geometry": {"type": "Point", "coordinates": [-152.8810037364794, -36.071295661417786]}}, {"type": "Feature", "properties": {"norad_id": 67128, "name": "STARLINK-35685", "group": "last-30-days", "lat": -33.898715748950046, "lon": -147.61923325863134, "alt_km": 292.315848345972, "timestamp": "2025-12-22T05:49:02.189960+00:00", "meta": {"OBJECT_NAME": "STARLINK-35685", "OBJECT_ID": "2025-299AC", "EPOCH": "2025-12-21T20:00:01.999008", "MEAN_MOTION": 15.95455879, "ECCENTRICITY": 0.0001786, "INCLINATION": 42.999, "RA_OF_ASC_NODE": 261.084, "ARG_OF_PERICENTER": 263.7103, "MEAN_ANOMALY": 210.0937, "EPHEMERIS_TYPE": 0, "CLASSIFICATION_TYPE": "U", "NORAD_CAT_ID": 67128, "ELEMENT_SET_NO": 999, "REV_AT_EPOCH": 227, "BSTAR": -0.0037307, "MEAN_MOTION_DOT": -0.01536534, "MEAN_MOTION_DDOT": 0.00068632}, "tle": {"line1": "1 67128U 25299AC  25355.83335647 -.01536534  68632-3 -37307-2 0  9999", "line2": "2 67128  42.9990 261.0840 0001786 263.7103 210.0937 15.95455879  2275"}}, "geometry": {"type": "Point", "coordinates": [-147.61923325863134, -33.898715748950046]}}, {"type": "Feature", "properties": {"norad_id": 67129, "name": "STARLINK-36214", "group": "last-30-days", "lat": -35.22352103474521, "lon": -150.72760477147895, "alt_km": 292.8616566545343, "timestamp": "2025-12-22T05:49:02.189973+00:00", "meta": {"OBJECT_NAME": "STARLINK-36214", "OBJECT_ID": "2025-299AD", "EPOCH": "2025-12-21T20:00:01.999008", "MEAN_MOTION": 15.95326123, "ECCENTRICITY": 0.0001772, "INCLINATION": 42.9992, "RA_OF_ASC_NODE": 261.0906, "ARG_OF_PERICENTER": 265.951, "MEAN_ANOMALY": 205.2074, "EPHEMERIS_TYPE": 0, "CLASSIFICATION_TYPE": "U", "NORAD_CAT_ID": 67129, "ELEMENT_SET_NO": 999, "REV_AT_EPOCH": 227, "BSTAR": -0.0039776, "MEAN_MOTION_DOT": -0.01625566, "MEAN_MOTION_DDOT": 0.00076033}, "tle": {"line1": "1 67129U 25299AD  25355.83335647 -.01625566  76033-3 -39776-2 0  9990", "line2": "2 67129  42.9992 261.0906 0001772 265.9510 205.2074 15.95326123  2279"}}, "geometry": {"type": "Point", "coordinates": [-150.72760477147895, -35.22352103474521]}}, {"type": "Feature", "properties": {"norad_id": 67130, "name": "STARLINK-36194", "group": "last-30-days", "lat": -31.15287461508995, "lon": -141.93099176959194, "alt_km": 292.02030304726395, "timestamp": "2025-12-22T05:49:02.189983+00:00", "meta": {"OBJECT_NAME": "STARLINK-36194", "OBJECT_ID": "2025-299AE", "EPOCH": "2025-12-21T20:00:01.999008", "MEAN_MOTION": 15.95555944, "ECCENTRICITY": 0.0001746, "INCLINATION": 42.9991, "RA_OF_ASC_NODE": 261.0721, "ARG_OF_PERICENTER": 265.1111, "MEAN_ANOMALY": 214.1006, "EPHEMERIS_TYPE": 0, "CLASSIFICATION_TYPE": "U", "NORAD_CAT_ID": 67130, "ELEMENT_SET_NO": 999, "REV_AT_EPOCH": 227, "BSTAR": -0.0037756, "MEAN_MOTION_DOT": -0.01563124, "MEAN_MOTION_DDOT": 0.00070905}, "tle": {"line1": "1 67130U 25299AE  25355.83335647 -.01563124  70905-3 -37756-2 0  9991", "line2": "2 67130  42.9991 261.0721 0001746 265.1111 214.1006 15.95555944  2274"}}, "geometry": {"type": "Point", "coordinates": [-141.93099176959194, -31.15287461508995]}}]}